{
  "links" : {
    "next" : "https://api.nasa.gov/neo/rest/v1/feed?start_date=2004-03-16&end_date=2004-03-16&detailed=true&api_key=t0TVs3DtDT2H8Oy2Zy8m2eVrNsAVKAexjcZXUckd",
    "prev" : "https://api.nasa.gov/neo/rest/v1/feed?start_date=2004-03-14&end_date=2004-03-14&detailed=true&api_key=t0TVs3DtDT2H8Oy2Zy8m2eVrNsAVKAexjcZXUckd",
    "self" : "https://api.nasa.gov/neo/rest/v1/feed?start_date=2004-03-15&end_date=2004-03-15&detailed=true&api_key=t0TVs3DtDT2H8Oy2Zy8m2eVrNsAVKAexjcZXUckd"
  },
  "element_count" : 8,
  "near_earth_objects" : {
    "2004-03-15" : [ {
      "links" : {
        "self" : "https://api.nasa.gov/neo/rest/v1/neo/3250193?api_key=t0TVs3DtDT2H8Oy2Zy8m2eVrNsAVKAexjcZXUckd"
      },
      "neo_reference_id" : "3250193",
      "name" : "(2004 QG13)",
      "nasa_jpl_url" : "http://ssd.jpl.nasa.gov/sbdb.cgi?sstr=3250193",
      "absolute_magnitude_h" : 21.4,
      "estimated_diameter" : {
        "kilometers" : {
          "estimated_diameter_min" : 0.1394938229,
          "estimated_diameter_max" : 0.3119176705
        },
        "meters" : {
          "estimated_diameter_min" : 139.4938229344,
          "estimated_diameter_max" : 311.9176705226
        },
        "miles" : {
          "estimated_diameter_min" : 0.0866774163,
          "estimated_diameter_max" : 0.1938165949
        },
        "feet" : {
          "estimated_diameter_min" : 457.6569140361,
          "estimated_diameter_max" : 1023.3519701574
        }
      },
      "is_potentially_hazardous_asteroid" : false,
      "close_approach_data" : [ {
        "close_approach_date" : "2004-03-15",
        "epoch_date_close_approach" : 1079337600000,
        "relative_velocity" : {
          "kilometers_per_second" : "33.6244599713",
          "kilometers_per_hour" : "121048.0558968017",
          "miles_per_hour" : "75214.5545098766"
        },
        "miss_distance" : {
          "astronomical" : "0.4440068234",
          "lunar" : "172.7186584473",
          "kilometers" : "66422476",
          "miles" : "41273012"
        },
        "orbiting_body" : "Earth"
      } ],
      "orbital_data" : {
        "orbit_id" : "11",
        "orbit_determination_date" : "2017-04-06 09:12:25",
        "orbit_uncertainty" : "9",
        "minimum_orbit_intersection" : ".104298",
        "jupiter_tisserand_invariant" : "5.928",
        "epoch_osculation" : "2453243.5",
        "eccentricity" : ".1734065054762213",
        "semi_major_axis" : ".9529967607070488",
        "inclination" : "56.30838305579184",
        "ascending_node_longitude" : "151.8551256779255",
        "orbital_period" : "339.8095370387543",
        "perihelion_distance" : ".7877409227026808",
        "perihelion_argument" : "9.212673839284673",
        "aphelion_distance" : "1.118252598711417",
        "perihelion_time" : "2453088.603023443676",
        "mean_anomaly" : "164.1004900751713",
        "mean_motion" : "1.059416999114251",
        "equinox" : "J2000"
      }
    }, {
      "links" : {
        "self" : "https://api.nasa.gov/neo/rest/v1/neo/3445544?api_key=t0TVs3DtDT2H8Oy2Zy8m2eVrNsAVKAexjcZXUckd"
      },
      "neo_reference_id" : "3445544",
      "name" : "(2009 CE)",
      "nasa_jpl_url" : "http://ssd.jpl.nasa.gov/sbdb.cgi?sstr=3445544",
      "absolute_magnitude_h" : 24.6,
      "estimated_diameter" : {
        "kilometers" : {
          "estimated_diameter_min" : 0.0319561887,
          "estimated_diameter_max" : 0.0714562102
        },
        "meters" : {
          "estimated_diameter_min" : 31.9561886721,
          "estimated_diameter_max" : 71.4562101727
        },
        "miles" : {
          "estimated_diameter_min" : 0.0198566489,
          "estimated_diameter_max" : 0.0444008168
        },
        "feet" : {
          "estimated_diameter_min" : 104.8431420431,
          "estimated_diameter_max" : 234.436392583
        }
      },
      "is_potentially_hazardous_asteroid" : false,
      "close_approach_data" : [ {
        "close_approach_date" : "2004-03-15",
        "epoch_date_close_approach" : 1079337600000,
        "relative_velocity" : {
          "kilometers_per_second" : "15.4204230433",
          "kilometers_per_hour" : "55513.5229559351",
          "miles_per_hour" : "34493.944305592"
        },
        "miss_distance" : {
          "astronomical" : "0.3458446435",
          "lunar" : "134.5335693359",
          "kilometers" : "51737624",
          "miles" : "32148270"
        },
        "orbiting_body" : "Earth"
      } ],
      "orbital_data" : {
        "orbit_id" : "7",
        "orbit_determination_date" : "2017-04-06 09:01:28",
        "orbit_uncertainty" : "7",
        "minimum_orbit_intersection" : ".0659485",
        "jupiter_tisserand_invariant" : "6.635",
        "epoch_osculation" : "2458000.5",
        "eccentricity" : ".1873200333238078",
        "semi_major_axis" : ".892635029153654",
        "inclination" : "8.137156646263824",
        "ascending_node_longitude" : "127.7337023569578",
        "orbital_period" : "308.0415608320432",
        "perihelion_distance" : ".7254266057465935",
        "perihelion_argument" : "190.34833968",
        "aphelion_distance" : "1.059843452560715",
        "perihelion_time" : "2458113.208362077551",
        "mean_anomaly" : "228.2807273202935",
        "mean_motion" : "1.16867347064342",
        "equinox" : "J2000"
      }
    }, {
      "links" : {
        "self" : "https://api.nasa.gov/neo/rest/v1/neo/3579748?api_key=t0TVs3DtDT2H8Oy2Zy8m2eVrNsAVKAexjcZXUckd"
      },
      "neo_reference_id" : "3579748",
      "name" : "(2011 SY120)",
      "nasa_jpl_url" : "http://ssd.jpl.nasa.gov/sbdb.cgi?sstr=3579748",
      "absolute_magnitude_h" : 23.2,
      "estimated_diameter" : {
        "kilometers" : {
          "estimated_diameter_min" : 0.0608912622,
          "estimated_diameter_max" : 0.1361570015
        },
        "meters" : {
          "estimated_diameter_min" : 60.8912622106,
          "estimated_diameter_max" : 136.1570015386
        },
        "miles" : {
          "estimated_diameter_min" : 0.0378360645,
          "estimated_diameter_max" : 0.0846040122
        },
        "feet" : {
          "estimated_diameter_min" : 199.7744887109,
          "estimated_diameter_max" : 446.7093369279
        }
      },
      "is_potentially_hazardous_asteroid" : false,
      "close_approach_data" : [ {
        "close_approach_date" : "2004-03-15",
        "epoch_date_close_approach" : 1079337600000,
        "relative_velocity" : {
          "kilometers_per_second" : "16.6507562005",
          "kilometers_per_hour" : "59942.7223217647",
          "miles_per_hour" : "37246.0765448765"
        },
        "miss_distance" : {
          "astronomical" : "0.2842079206",
          "lunar" : "110.5568771362",
          "kilometers" : "42516900",
          "miles" : "26418776"
        },
        "orbiting_body" : "Earth"
      } ],
      "orbital_data" : {
        "orbit_id" : "14",
        "orbit_determination_date" : "2017-04-06 08:52:39",
        "orbit_uncertainty" : "0",
        "minimum_orbit_intersection" : ".0519839",
        "jupiter_tisserand_invariant" : "5.076",
        "epoch_osculation" : "2458000.5",
        "eccentricity" : ".2296341097099899",
        "semi_major_axis" : "1.216513353304983",
        "inclination" : "31.92872547028875",
        "ascending_node_longitude" : "2.581755303650802",
        "orbital_period" : "490.0876374477115",
        "perihelion_distance" : ".9371603924684786",
        "perihelion_argument" : "115.0718277429149",
        "aphelion_distance" : "1.495866314141487",
        "perihelion_time" : "2457912.128828104984",
        "mean_anomaly" : "64.9141489221915",
        "mean_motion" : ".7345624996272411",
        "equinox" : "J2000"
      }
    } ]
  }
}